NORAD_CAT_ID,OBJECT_NAME,OBJECT_TYPE,EPOCH,MEAN_MOTION,ECCENTRICITY,INCLINATION,RA_OF_ASC_NODE,ARG_OF_PERICENTER,MEAN_ANOMALY,BSTAR,MEAN_MOTION_DOT,MEAN_MOTION_DDOT,TLE_LINE0,TLE_LINE1,TLE_LINE2,SEMIMAJOR_AXIS,PERIOD,APOGEE,PERIGEE,DECAYED
51996.0,STARLINK-3538,PAYLOAD,2023-05-26 13:14:04,15.08820632,8.88e-05,53.2162,269.7178,101.0051,259.1041,0.00076428,0.0001189,0.0,0 STARLINK-3538,1 51996U 22025AS  23146.55144085  .00011890  00000-0  76428-3 0  9998,2 51996  53.2162 269.7178 0000888 101.0051 259.1041 15.08820632 67216,6917.94,95.439,540.419,539.19,0.0
51996.0,STARLINK-3538,PAYLOAD,2023-05-26 14:49:26,15.08841502,0.0001054,53.2163,269.4197,94.6884,265.4229,0.00015065,2.111e-05,0.0,0 STARLINK-3538,1 51996U 22025AS  23146.61766682  .00002111  00000-0  15065-3 0  9994,2 51996  53.2163 269.4197 0001054  94.6884 265.4229 15.08841502 68748,6917.876,95.437,540.47,539.012,0.0
51996.0,STARLINK-3538,PAYLOAD,2023-05-27 14:40:13,15.08840066,9.31e-05,53.2178,264.9628,92.5735,267.5363,4.5709e-05,4.4e-06,0.0,0 STARLINK-3538,1 51996U 22025AS  23147.61126850  .00000440  00000-0  45709-4 0  9994,2 51996  53.2178 264.9628 0000931  92.5735 267.5363 15.08840066 68890,6917.88,95.438,540.389,539.101,0.0
51996.0,STARLINK-3538,PAYLOAD,2023-05-28 00:12:32,15.08844751,9.67e-05,53.2176,263.1783,108.0801,252.0297,-2.5386e-05,-6.92e-06,0.0,0 STARLINK-3538,1 51996U 22025AS  23148.00870587 -.00000692  00000-0 -25386-4 0  9991,2 51996  53.2176 263.1783 0000967 108.0801 252.0297 15.08844751 67436,6917.866,95.437,540.4,539.062,0.0
51996.0,STARLINK-3538,PAYLOAD,2023-05-28 14:31:00,15.08844907,0.0001038,53.2176,260.5039,102.6743,257.4365,0.00012645,1.725e-05,0.0,0 STARLINK-3538,1 51996U 22025AS  23148.60486396  .00001725  00000-0  12645-3 0  9997,2 51996  53.2176 260.5039 0001038 102.6743 257.4365 15.08844907 67524,6917.865,95.437,540.448,539.012,0.0
51996.0,STARLINK-3538,PAYLOAD,2023-05-29 00:03:19,15.08843521,9.97e-05,53.2173,258.7191,101.609,258.5014,6.7809e-05,7.92e-06,0.0,0 STARLINK-3538,1 51996U 22025AS  23149.00230575  .00000792  00000-0  67809-4 0  9994,2 51996  53.2173 258.7191 0000997 101.6090 258.5014 15.08843521 69106,6917.87,95.437,540.424,539.045,0.0
51996.0,STARLINK-3538,PAYLOAD,2023-05-29 09:35:38,15.08825413,0.0001207,53.2166,256.9354,118.7812,241.3302,0.00023373,3.432e-05,0.0,0 STARLINK-3538,1 51996U 22025AS  23149.39975199  .00003432  00000-0  23373-3 0  9995,2 51996  53.2166 256.9354 0001207 118.7812 241.3302 15.08825413 69161,6917.925,95.438,540.625,538.955,0.0
51996.0,STARLINK-3538,PAYLOAD,2023-05-29 12:46:24,15.08839792,9.12e-05,53.2166,256.3399,106.2053,253.904,7.3774e-05,8.87e-06,0.0,0 STARLINK-3538,1 51996U 22025AS  23149.53222820  .00000887  00000-0  73774-4 0  9999,2 51996  53.2166 256.3399 0000912 106.2053 253.9040 15.08839792 67661,6917.881,95.438,540.377,539.115,0.0
51996.0,STARLINK-3538,PAYLOAD,2023-05-29 15:57:10,15.08829724,0.0001021,53.2167,255.7465,105.7237,254.3868,0.00031681,4.756e-05,0.0,0 STARLINK-3538,1 51996U 22025AS  23149.66470875  .00004756  00000-0  31681-3 0  9997,2 51996  53.2167 255.7465 0001021 105.7237 254.3868 15.08829724 67688,6917.912,95.438,540.483,539.07,0.0
51996.0,STARLINK-3538,PAYLOAD,2023-05-30 12:37:11,15.0885361,0.000118,53.2165,251.8776,111.6259,248.4859,-0.00019403,-3.376e-05,0.0,0 STARLINK-3538,1 51996U 22025AS  23150.52582724 -.00003376  00000-0 -19403-3 0  9998,2 51996  53.2165 251.8776 0001180 111.6259 248.4859 15.08853610 67814,6917.839,95.437,540.52,538.887,0.0
51996.0,STARLINK-3538,PAYLOAD,2023-05-30 14:12:34,15.08839761,9.11e-05,53.2168,251.5804,104.8213,255.288,9.5447e-06,-1.36e-06,0.0,0 STARLINK-3538,1 51996U 22025AS  23150.59207062 -.00000136  00000-0  95447-5 0  9998,2 51996  53.2168 251.5804 0000911 104.8213 255.2880 15.08839761 69342,6917.881,95.438,540.376,539.116,0.0
51996.0,STARLINK-3538,PAYLOAD,2023-05-31 14:03:21,15.08845303,8.67e-05,53.2166,247.1214,83.0749,277.0342,6.2666e-05,7.1e-06,0.0,0 STARLINK-3538,1 51996U 22025AS  23151.58566724  .00000710  00000-0  62666-4 0  9994,2 51996  53.2166 247.1214 0000867  83.0749 277.0342 15.08845303 67979,6917.864,95.437,540.329,539.129,0.0
51996.0,STARLINK-3538,PAYLOAD,2023-05-31 15:38:44,15.08848078,8.92e-05,53.2166,246.8237,83.2061,276.9032,8.5148e-05,1.068e-05,0.0,0 STARLINK-3538,1 51996U 22025AS  23151.65190468  .00001068  00000-0  85148-4 0  9997,2 51996  53.2166 246.8237 0000892  83.2061 276.9032 15.08848078 69504,6917.856,95.437,540.338,539.104,0.0
51996.0,STARLINK-3538,PAYLOAD,2023-05-31 23:35:40,15.08843031,8.51e-05,53.2164,245.3373,88.5366,271.5724,2.6204e-05,1.29e-06,0.0,0 STARLINK-3538,1 51996U 22025AS  23151.98310821  .00000129  00000-0  26204-4 0  9995,2 51996  53.2164 245.3373 0000851  88.5366 271.5724 15.08843031 69556,6917.871,95.437,540.325,539.147,0.0
51996.0,STARLINK-3538,PAYLOAD,2023-06-01 10:43:22,15.08839759,8.44e-05,53.2161,243.2559,85.6622,274.4466,0.00012116,1.641e-05,0.0,0 STARLINK-3538,1 51996U 22025AS  23152.44678869  .00001641  00000-0  12116-3 0  9992,2 51996  53.2161 243.2559 0000844  85.6622 274.4466 15.08839759 68108,6917.881,95.438,540.33,539.162,0.0
51996.0,STARLINK-3538,PAYLOAD,2023-06-02 10:34:10,15.08834438,9.24e-05,53.2161,238.7956,84.5219,275.5879,1.4832e-05,-5.2e-07,0.0,0 STARLINK-3538,1 51996U 22025AS  23153.44039532 -.00000052  00000-0  14832-4 0  9995,2 51996  53.2161 238.7956 0000924  84.5219 275.5879 15.08834438 69770,6917.897,95.438,540.402,539.123,0.0
51996.0,STARLINK-3538,PAYLOAD,2023-06-02 12:09:33,15.0883753,9.24e-05,53.2162,238.4974,91.0147,269.0951,-5.6839e-06,-3.78e-06,0.0,0 STARLINK-3538,1 51996U 22025AS  23153.50663423 -.00000378  00000-0 -56839-5 0  9990,2 51996  53.2162 238.4974 0000924  91.0147 269.0951 15.08837530 68269,6917.888,95.438,540.392,539.114,0.0
51996.0,STARLINK-3538,PAYLOAD,2023-06-02 15:20:19,15.08840237,9.24e-05,53.2161,237.9021,99.4252,260.6844,2.2419e-05,6.9e-07,0.0,0 STARLINK-3538,1 51996U 22025AS  23153.63911132  .00000069  00000-0  22419-4 0  9998,2 51996  53.2161 237.9021 0000924  99.4252 260.6844 15.08840237 68282,6917.88,95.438,540.384,539.105,0.0
51996.0,STARLINK-3538,PAYLOAD,2023-06-03 12:00:19,15.08841801,9.93e-05,53.2159,234.036,111.9296,248.1802,2.6533e-05,1.35e-06,0.0,0 STARLINK-3538,1 51996U 22025AS  23154.50022928  .00000135  00000-0  26533-4 0  9996,2 51996  53.2159 234.0360 0000993 111.9296 248.1802 15.08841801 68415,6917.875,95.437,540.427,539.053,0.0
51996.0,STARLINK-3538,PAYLOAD,2023-06-04 10:15:44,15.0883246,9.48e-05,53.216,229.873,101.9663,258.1436,4.0591e-05,3.58e-06,0.0,0 STARLINK-3538,1 51996U 22025AS  23155.42759697  .00000358  00000-0  40591-4 0  9995,2 51996  53.2160 229.8730 0000948 101.9663 258.1436 15.08832460 70077,6917.903,95.438,540.424,539.113,0.0
51996.0,STARLINK-3538,PAYLOAD,2023-06-04 11:51:07,15.08834223,8.84e-05,53.2159,229.5764,93.1001,267.0092,1.5601e-05,-3.9e-07,0.0,0 STARLINK-3538,1 51996U 22025AS  23155.49383706 -.00000039  00000-0  15601-4 0  9997,2 51996  53.2159 229.5764 0000884  93.1001 267.0092 15.08834223 68563,6917.898,95.438,540.375,539.152,0.0
51996.0,STARLINK-3538,PAYLOAD,2023-06-04 21:23:26,15.0883623,9.24e-05,53.2164,227.7923,93.555,266.5548,3.1608e-05,2.15e-06,0.0,0 STARLINK-3538,1 51996U 22025AS  23155.89127610  .00000215  00000-0  31608-4 0  9991,2 51996  53.2164 227.7923 0000924  93.5550 266.5548 15.08836230 68621,6917.892,95.438,540.396,539.118,0.0
51996.0,STARLINK-3538,PAYLOAD,2023-06-05 10:06:30,15.08842716,8.28e-05,53.2159,225.4128,86.6725,273.4362,6.611e-05,7.65e-06,0.0,0 STARLINK-3538,1 51996U 22025AS  23156.42119117  .00000765  00000-0  66110-4 0  9990,2 51996  53.2159 225.4128 0000828  86.6725 273.4362 15.08842716 70223,6917.872,95.437,540.31,539.164,0.0
51996.0,STARLINK-3538,PAYLOAD,2023-06-05 11:41:53,15.08845608,8.24e-05,53.2163,225.1165,94.4816,265.6271,9.5123e-05,1.227e-05,0.0,0 STARLINK-3538,1 51996U 22025AS  23156.48742840  .00001227  00000-0  95123-4 0  9991,2 51996  53.2163 225.1165 0000824  94.4816 265.6271 15.08845608 68716,6917.863,95.437,540.298,539.158,0.0
51996.0,STARLINK-3538,PAYLOAD,2023-06-05 13:17:16,15.08846245,8.34e-05,53.2165,224.8191,94.9189,265.1898,9.8895e-05,1.287e-05,0.0,0 STARLINK-3538,1 51996U 22025AS  23156.55366776  .00001287  00000-0  98895-4 0  9994,2 51996  53.2165 224.8191 0000834  94.9189 265.1898 15.08846245 68721,6917.861,95.437,540.303,539.149,0.0
51996.0,STARLINK-3538,PAYLOAD,2023-06-06 08:21:55,15.08829355,9.56e-05,53.2173,221.2519,96.8975,263.2126,4.4493e-06,-2.17e-06,0.0,0 STARLINK-3538,1 51996U 22025AS  23157.34856289 -.00000217  00000-0  44493-5 0  9994,2 51996  53.2173 221.2519 0000956  96.8975 263.2126 15.08829355 70363,6917.913,95.438,540.439,539.117,0.0
51996.0,STARLINK-3538,PAYLOAD,2023-06-06 13:08:04,15.08834148,9.85e-05,53.2171,220.3599,96.4998,263.6106,4.2557e-05,3.9e-06,0.0,0 STARLINK-3538,1 51996U 22025AS  23157.54727951  .00000390  00000-0  42557-4 0  9998,2 51996  53.2171 220.3599 0000985  96.4998 263.6106 15.08834148 68873,6917.898,95.438,540.445,539.082,0.0
51996.0,STARLINK-3538,PAYLOAD,2023-06-07 06:37:19,15.08842555,0.0001088,53.2178,217.0894,103.3015,256.8099,1.4291e-05,-6e-07,0.0,0 STARLINK-3538,1 51996U 22025AS  23158.27591668 -.00000060  00000-0  14291-4 0  9992,2 51996  53.2178 217.0894 0001088 103.3015 256.8099 15.08842555 70503,6917.873,95.437,540.49,538.985,0.0
51996.0,STARLINK-3538,PAYLOAD,2023-06-07 12:58:51,15.0884518,9.54e-05,53.2169,215.899,96.9969,263.1131,1.441e-05,-5.8e-07,0.0,0 STARLINK-3538,1 51996U 22025AS  23158.54087467 -.00000058  00000-0  14410-4 0  9999,2 51996  53.2169 215.8990 0000954  96.9969 263.1131 15.08845180 69022,6917.865,95.437,540.39,539.07,0.0
51996.0,STARLINK-3538,PAYLOAD,2023-06-07 20:55:47,15.08839888,8.21e-05,53.2161,214.4107,81.6204,278.4881,-3.6818e-05,-8.74e-06,0.0,0 STARLINK-3538,1 51996U 22025AS  23158.87207928 -.00000874  00000-0 -36818-4 0  9994,2 51996  53.2161 214.4107 0000821  81.6204 278.4881 15.08839888 69079,6917.881,95.438,540.314,539.178,0.0
